{"epoch":1784799577,"count":18318,"objects":[{"id":"60549","name":"ICEYE-X40","type":"PAYLOAD","l1":"1 60549U 24149CK  26203.63788362  .00003749  00000-0  32145-3 0  9991","l2":"2 60549  97.6807 279.5648 0003485 342.4887  17.6215 14.98115666105386"},{"id":"62384","name":"ICEYE-X49","type":"PAYLOAD","l1":"1 62384U 24247H   26203.94517195  .00003691  00000-0  21681-3 0  9996","l2":"2 62384  44.9969 166.3856 0000608 184.4570 175.6302 15.13494344 87595"},{"id":"62389","name":"ICEYE-X47","type":"PAYLOAD","l1":"1 62389U 24247N   26203.92081147  .00002003  00000-0  12410-3 0  9998","l2":"2 62389  44.9964 166.1055 0000649  50.1891 309.9043 15.13511630 87596"},{"id":"62698","name":"ICEYE-X42","type":"PAYLOAD","l1":"1 62698U 25009CT  26203.48714237  .00001539  00000-0  15790-3 0  9999","l2":"2 62698  97.7387 281.1649 0001316  99.3373 260.7994 14.91838552 82553"},{"id":"62700","name":"ICEYE-X41","type":"PAYLOAD","l1":"1 62700U 25009CV  26203.90080131  .00003724  00000-0  32902-3 0  9991","l2":"2 62700  97.7055 282.9094 0000788 159.2033 200.9221 14.96948081 82758"},{"id":"62705","name":"ICEYE-X45","type":"PAYLOAD","l1":"1 62705U 25009DA  26203.19834466  .00004014  00000-0  32050-3 0  9992","l2":"2 62705  97.8424 290.1795 0000850  66.0870 294.0442 15.00850467 82932"},{"id":"62707","name":"ICEYE-X44","type":"PAYLOAD","l1":"1 62707U 25009DC  26203.46565517  .00001674  00000-0  15358-3 0  9993","l2":"2 62707  97.7050 282.0357 0001948  57.6113 302.5297 14.96191968105215"},{"id":"63253","name":"ICEYE-X48","type":"PAYLOAD","l1":"1 63253U 25052AV  26203.65759268  .00002610  00000-0  22502-3 0  9997","l2":"2 63253  97.6843  95.2993 0004353  86.2874 273.8846 14.98161193 73983"},{"id":"63255","name":"ICEYE-X50","type":"PAYLOAD","l1":"1 63255U 25052AX  26203.89109961  .00001252  00000-0  11855-3 0  9994","l2":"2 63255  97.6843  95.0944 0003404  88.7476 271.4135 14.95379197 73987"},{"id":"63257","name":"ICEYE-X51","type":"PAYLOAD","l1":"1 63257U 25052AZ  26203.79241580  .00004103  00000-0  32696-3 0  9993","l2":"2 63257  97.7619  98.8279 0002114  62.8734 297.2705 15.00900798 74142"},{"id":"63258","name":"ICEYE-X46","type":"PAYLOAD","l1":"1 63258U 25052BA  26203.68706629  .00001025  00000-0  98003-4 0  9997","l2":"2 63258  97.6846  94.8937 0001509  82.8788 277.2605 14.95381177 73951"},{"id":"64570","name":"ICEYE-X54","type":"PAYLOAD","l1":"1 64570U 25135AU  26203.90760207  .00003559  00000-0  33269-3 0  9990","l2":"2 64570  97.7742 317.9925 0002672 165.3998 194.7300 14.94761237 59231"},{"id":"64572","name":"ICEYE-X52","type":"PAYLOAD","l1":"1 64572U 25135AW  26203.91105131  .00001560  00000-0  15291-3 0  9997","l2":"2 64572  97.7773 317.7742 0001884 166.5682 193.5589 14.93671433 59210"},{"id":"64574","name":"ICEYE-X56","type":"PAYLOAD","l1":"1 64574U 25135AY  26203.95659873  .00002887  00000-0  26392-3 0  9997","l2":"2 64574  97.7772 318.6435 0001871 167.1934 192.9335 14.95798893 59273"},{"id":"64578","name":"ICEYE-X57","type":"PAYLOAD","l1":"1 64578U 25135BC  26203.93500553  .00011126  00000-0  87832-3 0  9991","l2":"2 64578  97.8037 320.5198 0002126  57.1749 302.9679 15.00875465 59380"},{"id":"64581","name":"ICEYE-X55","type":"PAYLOAD","l1":"1 64581U 25135BF  26203.89922735  .00002768  00000-0  25583-3 0  9997","l2":"2 64581  97.7765 318.4073 0002494 205.6723 154.4374 14.95392736 59255"}]}