{"fetched_at":"2026-07-23T07:05:46.622Z","source":"https://celestrak.org/NORAD/elements/gp.php?NAME=ICEYE&FORMAT=JSON","constellation":"iceye","records":[{"OBJECT_NAME":"ICEYE-X40","OBJECT_ID":"2024-149CK","EPOCH":"2026-07-22T15:18:33.144768","CLASSIFICATION_TYPE":"U","MEAN_MOTION":14.98115666,"ECCENTRICITY":0.00034846,"INCLINATION":97.6807,"RA_OF_ASC_NODE":279.5648,"ARG_OF_PERICENTER":342.4887,"MEAN_ANOMALY":17.6215,"EPHEMERIS_TYPE":0,"NORAD_CAT_ID":60549,"ELEMENT_SET_NO":999,"REV_AT_EPOCH":10538,"BSTAR":0.00032144964,"MEAN_MOTION_DOT":0.00003749,"MEAN_MOTION_DDOT":0},{"OBJECT_NAME":"ICEYE-X49","OBJECT_ID":"2024-247H","EPOCH":"2026-07-22T22:41:02.856480","CLASSIFICATION_TYPE":"U","MEAN_MOTION":15.13494344,"ECCENTRICITY":0.00006078,"INCLINATION":44.9969,"RA_OF_ASC_NODE":166.3856,"ARG_OF_PERICENTER":184.457,"MEAN_ANOMALY":175.6302,"EPHEMERIS_TYPE":0,"NORAD_CAT_ID":62384,"ELEMENT_SET_NO":999,"REV_AT_EPOCH":8759,"BSTAR":0.00021681065,"MEAN_MOTION_DOT":0.00003691,"MEAN_MOTION_DDOT":0},{"OBJECT_NAME":"ICEYE-X47","OBJECT_ID":"2024-247N","EPOCH":"2026-07-22T22:05:58.111008","CLASSIFICATION_TYPE":"U","MEAN_MOTION":15.1351163,"ECCENTRICITY":0.00006486,"INCLINATION":44.9964,"RA_OF_ASC_NODE":166.1055,"ARG_OF_PERICENTER":50.1891,"MEAN_ANOMALY":309.9043,"EPHEMERIS_TYPE":0,"NORAD_CAT_ID":62389,"ELEMENT_SET_NO":999,"REV_AT_EPOCH":8759,"BSTAR":0.00012410102,"MEAN_MOTION_DOT":0.00002003,"MEAN_MOTION_DDOT":0},{"OBJECT_NAME":"ICEYE-X42","OBJECT_ID":"2025-009CT","EPOCH":"2026-07-22T11:41:29.100768","CLASSIFICATION_TYPE":"U","MEAN_MOTION":14.91838552,"ECCENTRICITY":0.00013159,"INCLINATION":97.7387,"RA_OF_ASC_NODE":281.1649,"ARG_OF_PERICENTER":99.3373,"MEAN_ANOMALY":260.7994,"EPHEMERIS_TYPE":0,"NORAD_CAT_ID":62698,"ELEMENT_SET_NO":999,"REV_AT_EPOCH":8255,"BSTAR":0.00015789617,"MEAN_MOTION_DOT":0.00001539,"MEAN_MOTION_DDOT":0},{"OBJECT_NAME":"ICEYE-X41","OBJECT_ID":"2025-009CV","EPOCH":"2026-07-22T21:37:09.233184","CLASSIFICATION_TYPE":"U","MEAN_MOTION":14.96948081,"ECCENTRICITY":0.00007882,"INCLINATION":97.7055,"RA_OF_ASC_NODE":282.9094,"ARG_OF_PERICENTER":159.2033,"MEAN_ANOMALY":200.9221,"EPHEMERIS_TYPE":0,"NORAD_CAT_ID":62700,"ELEMENT_SET_NO":999,"REV_AT_EPOCH":8275,"BSTAR":0.00032901987,"MEAN_MOTION_DOT":0.00003724,"MEAN_MOTION_DDOT":0},{"OBJECT_NAME":"ICEYE-X45","OBJECT_ID":"2025-009DA","EPOCH":"2026-07-22T04:45:36.978624","CLASSIFICATION_TYPE":"U","MEAN_MOTION":15.00850467,"ECCENTRICITY":0.00008501,"INCLINATION":97.8424,"RA_OF_ASC_NODE":290.1795,"ARG_OF_PERICENTER":66.087,"MEAN_ANOMALY":294.0442,"EPHEMERIS_TYPE":0,"NORAD_CAT_ID":62705,"ELEMENT_SET_NO":999,"REV_AT_EPOCH":8293,"BSTAR":0.0003204987,"MEAN_MOTION_DOT":0.00004014,"MEAN_MOTION_DDOT":0},{"OBJECT_NAME":"ICEYE-X44","OBJECT_ID":"2025-009DC","EPOCH":"2026-07-22T11:10:32.606688","CLASSIFICATION_TYPE":"U","MEAN_MOTION":14.96191968,"ECCENTRICITY":0.00019485,"INCLINATION":97.705,"RA_OF_ASC_NODE":282.0357,"ARG_OF_PERICENTER":57.6113,"MEAN_ANOMALY":302.5297,"EPHEMERIS_TYPE":0,"NORAD_CAT_ID":62707,"ELEMENT_SET_NO":999,"REV_AT_EPOCH":10521,"BSTAR":0.00015358427,"MEAN_MOTION_DOT":0.00001674,"MEAN_MOTION_DDOT":0},{"OBJECT_NAME":"ICEYE-X48","OBJECT_ID":"2025-052AV","EPOCH":"2026-07-22T15:46:56.007552","CLASSIFICATION_TYPE":"U","MEAN_MOTION":14.98161193,"ECCENTRICITY":0.00043533,"INCLINATION":97.6843,"RA_OF_ASC_NODE":95.2993,"ARG_OF_PERICENTER":86.2874,"MEAN_ANOMALY":273.8846,"EPHEMERIS_TYPE":0,"NORAD_CAT_ID":63253,"ELEMENT_SET_NO":999,"REV_AT_EPOCH":7398,"BSTAR":0.00022502291,"MEAN_MOTION_DOT":0.0000261,"MEAN_MOTION_DDOT":0},{"OBJECT_NAME":"ICEYE-X50","OBJECT_ID":"2025-052AX","EPOCH":"2026-07-22T21:23:11.006304","CLASSIFICATION_TYPE":"U","MEAN_MOTION":14.95379197,"ECCENTRICITY":0.00034044,"INCLINATION":97.6843,"RA_OF_ASC_NODE":95.0944,"ARG_OF_PERICENTER":88.7476,"MEAN_ANOMALY":271.4135,"EPHEMERIS_TYPE":0,"NORAD_CAT_ID":63255,"ELEMENT_SET_NO":999,"REV_AT_EPOCH":7398,"BSTAR":0.00011854981,"MEAN_MOTION_DOT":0.00001252,"MEAN_MOTION_DDOT":0},{"OBJECT_NAME":"ICEYE-X51","OBJECT_ID":"2025-052AZ","EPOCH":"2026-07-22T19:01:04.725120","CLASSIFICATION_TYPE":"U","MEAN_MOTION":15.00900798,"ECCENTRICITY":0.00021141,"INCLINATION":97.7619,"RA_OF_ASC_NODE":98.8279,"ARG_OF_PERICENTER":62.8734,"MEAN_ANOMALY":297.2705,"EPHEMERIS_TYPE":0,"NORAD_CAT_ID":63257,"ELEMENT_SET_NO":999,"REV_AT_EPOCH":7414,"BSTAR":0.00032695867,"MEAN_MOTION_DOT":0.00004103,"MEAN_MOTION_DDOT":0},{"OBJECT_NAME":"ICEYE-X46","OBJECT_ID":"2025-052BA","EPOCH":"2026-07-22T16:29:22.527456","CLASSIFICATION_TYPE":"U","MEAN_MOTION":14.95381177,"ECCENTRICITY":0.0001509,"INCLINATION":97.6846,"RA_OF_ASC_NODE":94.8937,"ARG_OF_PERICENTER":82.8788,"MEAN_ANOMALY":277.2605,"EPHEMERIS_TYPE":0,"NORAD_CAT_ID":63258,"ELEMENT_SET_NO":999,"REV_AT_EPOCH":7395,"BSTAR":0.000098003161,"MEAN_MOTION_DOT":0.00001025,"MEAN_MOTION_DDOT":0},{"OBJECT_NAME":"ICEYE-X54","OBJECT_ID":"2025-135AU","EPOCH":"2026-07-22T21:46:56.818848","CLASSIFICATION_TYPE":"U","MEAN_MOTION":14.94761237,"ECCENTRICITY":0.00026716,"INCLINATION":97.7742,"RA_OF_ASC_NODE":317.9925,"ARG_OF_PERICENTER":165.3998,"MEAN_ANOMALY":194.73,"EPHEMERIS_TYPE":0,"NORAD_CAT_ID":64570,"ELEMENT_SET_NO":999,"REV_AT_EPOCH":5923,"BSTAR":0.00033269236,"MEAN_MOTION_DOT":0.00003559,"MEAN_MOTION_DDOT":0},{"OBJECT_NAME":"ICEYE-X52","OBJECT_ID":"2025-135AW","EPOCH":"2026-07-22T21:51:54.833184","CLASSIFICATION_TYPE":"U","MEAN_MOTION":14.93671433,"ECCENTRICITY":0.00018839,"INCLINATION":97.7773,"RA_OF_ASC_NODE":317.7742,"ARG_OF_PERICENTER":166.5682,"MEAN_ANOMALY":193.5589,"EPHEMERIS_TYPE":0,"NORAD_CAT_ID":64572,"ELEMENT_SET_NO":999,"REV_AT_EPOCH":5921,"BSTAR":0.00015290756,"MEAN_MOTION_DOT":0.0000156,"MEAN_MOTION_DDOT":0},{"OBJECT_NAME":"ICEYE-X56","OBJECT_ID":"2025-135AY","EPOCH":"2026-07-22T22:57:30.130272","CLASSIFICATION_TYPE":"U","MEAN_MOTION":14.95798893,"ECCENTRICITY":0.00018714,"INCLINATION":97.7772,"RA_OF_ASC_NODE":318.6435,"ARG_OF_PERICENTER":167.1934,"MEAN_ANOMALY":192.9335,"EPHEMERIS_TYPE":0,"NORAD_CAT_ID":64574,"ELEMENT_SET_NO":999,"REV_AT_EPOCH":5927,"BSTAR":0.00026392294,"MEAN_MOTION_DOT":0.00002887,"MEAN_MOTION_DDOT":0},{"OBJECT_NAME":"ICEYE-X57","OBJECT_ID":"2025-135BC","EPOCH":"2026-07-22T22:26:24.477792","CLASSIFICATION_TYPE":"U","MEAN_MOTION":15.00875465,"ECCENTRICITY":0.00021264,"INCLINATION":97.8037,"RA_OF_ASC_NODE":320.5198,"ARG_OF_PERICENTER":57.1749,"MEAN_ANOMALY":302.9679,"EPHEMERIS_TYPE":0,"NORAD_CAT_ID":64578,"ELEMENT_SET_NO":999,"REV_AT_EPOCH":5938,"BSTAR":0.00087831535,"MEAN_MOTION_DOT":0.00011126,"MEAN_MOTION_DDOT":0},{"OBJECT_NAME":"ICEYE-X55","OBJECT_ID":"2025-135BF","EPOCH":"2026-07-22T21:34:53.243040","CLASSIFICATION_TYPE":"U","MEAN_MOTION":14.95392736,"ECCENTRICITY":0.00024936,"INCLINATION":97.7765,"RA_OF_ASC_NODE":318.4073,"ARG_OF_PERICENTER":205.6723,"MEAN_ANOMALY":154.4374,"EPHEMERIS_TYPE":0,"NORAD_CAT_ID":64581,"ELEMENT_SET_NO":999,"REV_AT_EPOCH":5925,"BSTAR":0.00025582926,"MEAN_MOTION_DOT":0.00002768,"MEAN_MOTION_DDOT":0}]}
